[Satellite]
VERSION=1.1
NAME=GLOBALSTAR M058
NICKNAME=GLOBALSTAR M058
TLE1=1 25907U 99049A   17186.27859832 -.00000096  00000-0 -15371-3 0  9998
TLE2=2 25907  51.9952 302.5842 0001670  81.4582 313.5166 11.93095751194901
